ONEWEB-0012             
1 44057U 19010A   25255.48429375 -.00000051  00000+0 -16656-3 0  9996
2 44057  87.8979 284.1486 0002074  81.0550 279.0816 13.16594560315029
ONEWEB-0010             
1 44058U 19010B   25255.50962640 -.00000016  00000+0 -75358-4 0  9993
2 44058  87.8981 284.1262 0001500  97.9996 262.1305 13.16594579315079
ONEWEB-0008             
1 44059U 19010C   25255.53492998  .00000109  00000+0  25060-3 0  9996
2 44059  87.8974 284.1191 0002105  95.0577 265.0794 13.16596708315192
ONEWEB-0007             
1 44060U 19010D   25255.50162610 -.00000121  00000+0 -35563-3 0  9995
2 44060  87.9035 314.6393 0001623  91.4411 268.6906 13.15548435314867
ONEWEB-0006             
1 44061U 19010E   25255.58163526 -.00000094  00000+0 -28277-3 0  9994
2 44061  87.9040 314.5640 0001638  96.6372 263.4945 13.15548883314927
ONEWEB-0011             
1 44062U 19010F   25254.94149809  .00000079  00000+0  17671-3 0  9999
2 44062  87.9046 314.7036 0001897 104.5924 255.5417 13.15549806314836
ONEWEB-0013             
1 45131U 20008A   25255.56687101  .00000058  00000+0  13104-3 0  9991
2 45131  87.8491 108.8969 0002366  60.4042 299.7321 13.09436801269732
ONEWEB-0017             
1 45132U 20008B   25255.51654983 -.00000344  00000+0 -10221-2 0  9995
2 45132  87.8744  91.6497 0001449  90.3002 269.8291 13.10375634271586
